IRIDIUM 7               
1 24793U 97020B   25200.85943866  .00000307  00000+0  99165-4 0  9994
2 24793  86.4003 163.2305 0002379  79.5813 280.5652 14.35956737476580
IRIDIUM 5               
1 24795U 97020D   25200.91799607  .00003988  00000+0  32457-3 0  9993
2 24795  86.3865  68.6338 0109330  22.1533 338.4366 14.94583359490356
IRIDIUM 4               
1 24796U 97020E   25200.89202641  .00000273  00000+0  85692-4 0  9992
2 24796  86.4000 160.0759 0002396  85.4087 274.7384 14.36858226477163
IRIDIUM 914             
1 24836U 97030A   25200.66474947  .00000369  00000+0  10884-3 0  9999
2 24836  86.3976 168.6696 0003798  97.5973 262.5658 14.40892187611807
IRIDIUM 16              
1 24841U 97030F   25200.95155712  .00000295  00000+0  89704-4 0  9999
2 24841  86.4053 191.5163 0001902  24.8865 335.2424 14.38731298471717
IRIDIUM 911             
1 24842U 97030G   25200.88015779  .00000473  00000+0  12270-3 0  9991
2 24842  86.4480 190.2816 0013996 358.3421   1.7733 14.47665390479818
IRIDIUM 17              
1 24870U 97034B   25200.81977844  .00000292  00000+0  90485-4 0  9993
2 24870  86.3944 221.0308 0000642  92.3654 267.7617 14.37846867468271
IRIDIUM 920             
1 24871U 97034C   25200.70933075  .00000341  00000+0  98774-4 0  9994
2 24871  86.3983 200.2417 0010826 345.7488  14.3405 14.41552840471264
